[{"OBJECT_NAME":"TOMORROW-S1","OBJECT_ID":"2024-149M","EPOCH":"2026-03-09T17:23:34.533600","MEAN_MOTION":15.31198363,"ECCENTRICITY":0.00018188,"INCLINATION":97.3791,"RA_OF_ASC_NODE":149.6044,"ARG_OF_PERICENTER":207.204,"MEAN_ANOMALY":152.9106,"EPHEMERIS_TYPE":0,"CLASSIFICATION_TYPE":"U","NORAD_CAT_ID":60479,"ELEMENT_SET_NO":999,"REV_AT_EPOCH":8686,"BSTAR":0.0002885603,"MEAN_MOTION_DOT":8.62e-5,"MEAN_MOTION_DDOT":0},{"OBJECT_NAME":"STARLINK-35674","OBJECT_ID":"2025-299R","EPOCH":"2026-03-09T17:45:50.309568","MEAN_MOTION":15.34683332,"ECCENTRICITY":0.00029294,"INCLINATION":43.0003,"RA_OF_ASC_NODE":168.7409,"ARG_OF_PERICENTER":355.3183,"MEAN_ANOMALY":4.7644,"EPHEMERIS_TYPE":0,"CLASSIFICATION_TYPE":"U","NORAD_CAT_ID":67117,"ELEMENT_SET_NO":999,"REV_AT_EPOCH":1312,"BSTAR":-0.0082098648,"MEAN_MOTION_DOT":-0.00272339,"MEAN_MOTION_DDOT":0}]
