TOMORROW-S1             
1 60479U 24149M   26068.72470524  .00008620  00000+0  28856-3 0  9996
2 60479  97.3791 149.6044 0001819 207.2040 152.9106 15.31198362 86867
STARLINK-35674          
1 67117U 25299R   26068.74016561 -.00272339  00000+0 -82099-2 0  9998
2 67117  43.0003 168.7409 0002929 355.3183   4.7644 15.34683331 13128
